[{"OBJECT_NAME":"STARLINK-31704","OBJECT_ID":"2024-076Y","EPOCH":"2026-03-09T22:00:01.999584","MEAN_MOTION":15.30892355,"ECCENTRICITY":0.00079744,"INCLINATION":42.9978,"RA_OF_ASC_NODE":323.2923,"ARG_OF_PERICENTER":240.5046,"MEAN_ANOMALY":200.4144,"EPHEMERIS_TYPE":0,"CLASSIFICATION_TYPE":"U","NORAD_CAT_ID":59586,"ELEMENT_SET_NO":999,"REV_AT_EPOCH":581,"BSTAR":0.0024766131,"MEAN_MOTION_DOT":0.00076042,"MEAN_MOTION_DDOT":0},{"OBJECT_NAME":"STARLINK-32790","OBJECT_ID":"2025-034V","EPOCH":"2026-03-09T21:23:00.497472","MEAN_MOTION":15.30199536,"ECCENTRICITY":8.896e-5,"INCLINATION":53.1569,"RA_OF_ASC_NODE":257.4706,"ARG_OF_PERICENTER":103.4612,"MEAN_ANOMALY":256.6488,"EPHEMERIS_TYPE":0,"CLASSIFICATION_TYPE":"U","NORAD_CAT_ID":63048,"ELEMENT_SET_NO":999,"REV_AT_EPOCH":5911,"BSTAR":0.0011224324,"MEAN_MOTION_DOT":0.00033031,"MEAN_MOTION_DDOT":0}]
